0 COSMOS 2090
1 20735U 90070A   13282.71329560 -.00000005  00000-0 -86546-4 0    49
2 20735 082.5709 009.8106 0014558 175.9609 296.9254 12.65238536 70212
0 COSMOS 2090
1 20735U 90070A   13287.13419541  .00000038  00000-0  14426-3 0    62
2 20735 082.5707 006.9712 0014723 166.2119 273.1786 12.65238128 70779
0 COSMOS 2090
1 20735U 90070A   13289.43809563  .00000048  00000-0  19779-3 0    72
2 20735 082.5702 005.4916 0014783 161.3190 326.7620 12.65238225 71068
0 COSMOS 2090
1 20735U 90070A   13291.49378457  .00000041  00000-0  16005-3 0    87
2 20735 082.5698 004.1713 0014854 156.8129 329.9571 12.65238433 71323
0 COSMOS 2090
1 20735U 90070A   13293.70495898  .00000020  00000-0  51245-4 0    96
2 20735 082.5695 002.7508 0014912 152.0134 321.3062 12.65238681 71602
0 COSMOS 2090
1 20735U 90070A   13296.14483969 -.00000003  00000-0 -71946-4 0   108
2 20735 082.5694 001.1834 0014980 146.7497 274.3258 12.65238678 71917
